ZACUBE-2                
1 43907U 18111AH  22347.61537030  .00012596  00000+0  41985-3 0  9990
2 43907  97.1638 227.6207 0018735 155.5582 289.8033 15.31053702220677
LUME 1                  
1 43908U 18111AJ  22347.19827324  .00015837  00000+0  47167-3 0  9991
2 43908  97.1655 229.5494 0017080 147.0161 213.2152 15.34626510220766
AOBA VELOX-IV           
1 43940U 19003J   22347.53929515  .00044783  00000+0  80567-3 0  9994
2 43940  97.1076  19.1804 0011530 205.6988 154.3693 15.49633906217730
MOVE-IIB                
1 44398U 19038N   22347.59002454  .00021130  00000+0  87225-3 0  9999
2 44398  97.6441 319.3730 0016591 225.5715 134.4165 15.23931037190262
SONATE                  
1 44400U 19038Q   22347.39209470  .00007523  00000+0  38590-3 0  9999
2 44400  97.6645 317.1478 0020817 233.7746 126.1562 15.16653191190036
LUCKY-7                 
1 44406U 19038W   22347.39337447  .00008989  00000+0  44324-3 0  9990
2 44406  97.6622 317.9085 0019695 230.1947 129.7553 15.17996577190088
BEESAT 9                
1 44412U 19038AC  22347.38052078  .00013166  00000+0  60496-3 0  9991
2 44412  97.6585 318.5824 0016737 232.4861 127.4853 15.20386328189846
JAISAT-1                
1 44419U 19038F   22347.44282048  .00011627  00000+0  52807-3 0  9994
2 44419  97.6586 319.6186 0015839 228.3019 131.6862 15.20832495190220
DUCHIFAT-3              
1 44854U 19089C   22347.63667897  .00006034  00000+0  45029-3 0  9997
2 44854  36.9637 117.0436 0007888 246.2889 130.3936 15.02567628164887
EYESAT-NANO             
1 44877U 19092E   22347.45403114  .00016336  00000+0  61744-3 0  9994
2 44877  97.4591 171.0842 0011722  87.2522 273.0058 15.26993784165639
ORBITAL FACTORY 2 (OF-2)
1 45113U 19071C   22347.44315001  .00065984  00000+0  81358-3 0  9997
2 45113  51.6338 251.4258 0011441 118.8678 241.3464 15.59490883161159
M2 PATHFINDER           
1 45727U 20037E   22347.45325176  .00002593  00000+0  25716-3 0  9990
2 45727  97.7408 159.8412 0013072 157.0721 203.1106 14.92586306133529
NETSAT-4                
1 46504U 20068U   22347.41879353  .00004164  00000+0  30033-3 0  9999
2 46504  97.7414 287.1430 0013736  79.3140 280.9627 15.04623927120941
NETSAT-3                
1 46505U 20068V   22347.57258521  .00005386  00000+0  38760-3 0  9997
2 46505  97.7391 287.1855 0012224  85.5188 274.7472 15.04583902120979
NETSAT-1                
1 46506U 20068W   22347.59580282  .00003901  00000+0  28273-3 0  9991
2 46506  97.7400 287.1218 0010538  93.8495 266.3950 15.04505996120978
NETSAT-2                
1 46507U 20068X   22347.40723754  .00004025  00000+0  29144-3 0  9991
2 46507  97.7405 286.9244 0010011  97.1976 263.0387 15.04522295120897
SAI-1 NANOCONNECT-2     
1 47701U 21015C   22346.98988480  .00017904  00000+0  57489-3 0  9995
2 47701  97.4081  63.4302 0010262 173.3537 186.7843 15.32305638 99504
WILDTRACKCUBE-SIMBA     
1 47941U 21022K   22347.55636890  .00005465  00000+0  35107-3 0  9990
2 47941  97.5140 243.2189 0018698 254.3206 189.1859 15.08708419 94980
BEESAT-6                
1 47957U 21022AB  22341.24657013  .00009924  00000+0  59141-3 0  9995
2 47957  97.5139 237.5671 0017288 277.1905  82.7359 15.11258870 93875
SMOG-1                  
1 47964U 21022AJ  22347.28025967  .00012286  00000+0  69738-3 0  9998
2 47964  97.5143 244.9722 0015498 240.4721 119.4965 15.12981533 93890
MMSATS-1                
1 47976U 98067SJ  22347.57442499  .00062267  00000+0  47605-3 0  9992
2 47976  51.6358 138.7356 0002143 239.7668 210.4470 15.71555003 98295
BCCSAT-1                
1 48041U 21022AK  22347.31257794  .00010059  00000+0  59084-3 0  9993
2 48041  97.5150 244.3756 0012272 238.1972 121.8064 15.11840739 93837
BEESAT-5                
1 48083U 21022AM  22347.23164503  .00011876  00000+0  69437-3 0  9996
2 48083  97.5097 243.4924 0016884 253.4028 106.5349 15.11904553 93915
BEESAT-7                
1 48084U 21022AN  22347.18694164  .00012455  00000+0  73334-3 0  9997
2 48084  97.5120 243.4356 0017230 253.9357 105.9976 15.11634386 93494
BEESAT-8                
1 48085U 21022AP  22347.15006591  .00008324  00000+0  50085-3 0  9994
2 48085  97.5117 243.3392 0017555 253.9743 105.9553 15.10956064 94041
LEDSAT                  
1 49069U 21073D   22347.44543336  .00004795  00000+0  29422-3 0  9997
2 49069  97.5067  56.7803 0027172  43.5216 316.8151 15.10286307 72831
HSU-SAT1                
1 53462U 98067UB  22347.31556749  .00083577  00000+0  87715-3 0  9998
2 53462  51.6348 163.4711 0009032 216.5439 143.4940 15.63591298 19156
FUTABA                  
1 53463U 98067UC  22346.90165208  .00096604  00000+0  88870-3 0  9997
2 53463  51.6333 164.4464 0009604 216.4231 143.6112 15.66830231 19105
TUMNANOSAT              
1 53464U 98067UD  22347.50505993  .00139532  00000+0  10871-2 0  9997
2 53464  51.6327 160.2211 0009980 222.4235 137.5992 15.70698696 19213
1998-067UL              
1 54534U 98067UL  22340.86252666  .00085099  00000+0  14432-2 0  9999
2 54534  51.6411 201.1483 0007784 141.2081 329.2667 15.50741142   750
1998-067UM              
1 54535U 98067UM  22347.55398257  .00047749  00000+0  79872-3 0  9990
2 54535  51.6429 167.9417 0006725 164.2227 255.1402 15.51387238  1799
1998-067UN              
1 54536U 98067UN  22347.55442741  .00036941  00000+0  62414-3 0  9995
2 54536  51.6428 167.9456 0007145 163.3488 256.2312 15.51220789  1753
1998-067UP              
1 54537U 98067UP  22347.36190587  .00040863  00000+0  68703-3 0  9998
2 54537  51.6436 168.8949 0007402 162.3802 263.6741 15.51308986  1760
